ARIANE 5 R/B            
1 28499U 04049H   26026.32391178  .00001937  00000+0  21885-3 0  9995
2 28499  98.2558 193.2160 0085294 127.9139 232.9826 14.85163411139507
CZ-2D R/B               
1 28738U 05024B   26025.94010061  .00047929  00000+0  67739-3 0  9990
2 28738  97.3630  39.6424 0005827 152.6964 207.4598 15.56388576133120
ALOS (DAICHI)           
1 28931U 06002A   26026.29316667  .00002434  00000+0  41727-3 0  9993
2 28931  98.1151 342.4861 0002174  79.6652 280.4799 14.69656414 67252
H-2A R/B                
1 28932U 06002B   26026.29987001  .00011012  00000+0  56347-3 0  9996
2 28932  98.2339 169.7293 0053792  26.6441 333.7536 15.15552125 88015
RESURS-DK 1             
1 29228U 06021A   26026.27853986  .00004264  00000+0  25059-3 0  9995
2 29228  69.9346 346.7068 0005135 215.8397 144.2425 15.12465495 81110
CZ-4B R/B               
1 29507U 06046C   26026.12079837  .00008074  00000+0  41247-3 0  9991
2 29507  97.5677  71.1401 0034944  56.6888 303.7683 15.16414195 53594
CZ-2C R/B               
1 31114U 07010B   26026.31475679  .00000218  00000+0  11888-3 0  9995
2 31114  98.3971 141.7227 0059924  58.1117 302.5872 14.20230712973700
COSMO-SKYMED 1          
1 31598U 07023A   26026.26880192  .00006930  00000+0  62013-3 0  9992
2 31598  97.8851 216.9735 0001407  89.2665 270.8717 14.96172088  8564
COSMOS 2428             
1 31792U 07029A   26026.12821210  .00000454  00000+0  26919-3 0  9995
2 31792  70.9402 292.6876 0006374 325.2338  34.8366 14.12921143958080
SL-16 R/B               
1 31793U 07029B   26025.64233250  .00000002  00000+0  25940-4 0  9996
2 31793  70.9736 262.8736 0001913 271.7727 118.9919 14.14822263959282
KORONAS-FOTON           
1 33504U 09003A   26026.28036706  .00014872  00000+0  34489-3 0  9997
2 33504  82.4326 319.9233 0009638 320.0158  40.0378 15.42220269939205
CZ-2C R/B               
1 37731U 11030B   26026.33276844  .00002099  00000+0  27070-3 0  9997
2 37731  97.8475 344.4719 0053872 127.1824 355.2275 14.81056500783822
H-2A R/B                
1 38341U 12025E   26025.89257058  .00005457  00000+0  49747-3 0  9992
2 38341  98.4654 349.5520 0046209  92.6368 268.0141 14.94776946741821
SHIJIAN-16 (SJ-16)      
1 39358U 13057A   26026.32508586  .00001350  00000+0  13503-3 0  9990
2 39358  74.9718 265.2837 0017537 216.6154 143.3836 14.92201256665183
SL-4 R/B                
1 39679U 14021B   26026.27676139  .00014756  00000+0  33939-3 0  9991
2 39679  51.6061 183.9671 0099078 308.2864  50.9239 15.37847686649747
ALOS-2                  
1 39766U 14029A   26026.24546146  .00001300  00000+0  18097-3 0  9996
2 39766  97.9192 125.4515 0001487 103.3931 256.7447 14.79468374630594
YAOGAN-29               
1 41038U 15069A   26026.28630370  .00000599  00000+0  80511-4 0  9993
2 41038  98.0190  54.5945 0002716 107.7560 252.3950 14.82941466549592
ASTRO-H (HITOMI)        
1 41337U 16012A   26025.99333293  .00004626  00000+0  27423-3 0  9992
2 41337  30.9994 272.0124 0009928 264.1512  95.7995 15.09682793545773
HXMT (HUIYAN)           
1 42758U 17034A   26025.98464752  .00007910  00000+0  40049-3 0  9997
2 42758  43.0135 253.9937 0032772 322.4897  37.3665 15.16891880476057
CZ-2C R/B               
1 43521U 18054D   26025.96357234  .00268633  00000+0  91990-3 0  9995
2 43521  35.1310 238.3712 0012968 247.8566 112.0795 15.87877978422055
SAOCOM 1A               
1 43641U 18076A   26026.29634271  .00001152  00000+0  15119-3 0  9998
2 43641  97.8865 215.0717 0001551  82.5406 277.5983 14.82169649395089
H-2A R/B                
1 43682U 18084L   26026.24936818  .00028168  00000+0  71268-3 0  9992
2 43682  98.8767 234.6264 0026054 169.1158 191.0652 15.39394422399248
SAOCOM 1B               
1 46265U 20059A   26026.32758862  .00000590  00000+0  80681-4 0  9996
2 46265  97.8860 214.2011 0001342  86.3596 273.7770 14.82143145292471
CSS (TIANHE)            
1 48274U 21035A   26026.26903541  .00028479  00000+0  33018-3 0  9999
2 48274  41.4667 105.9915 0009754   5.2238 354.8701 15.61108540270985
COSMOS 2550             
1 48865U 21056A   26026.13240542 -.00000181  00000+0  32270-6 0  9992
2 48865  67.1441 169.6578 0008309 269.8947  90.1255 15.33840202256938
CZ-2C R/B               
1 52794U 22058K   26025.84436117  .00040382  00000+0  65575-3 0  9990
2 52794  50.1882 178.1835 0042557  19.9381 340.3240 15.51237961203472
CZ-2C R/B               
1 54039U 22132E   26025.96995978  .00045928  00000+0  60603-3 0  9993
2 54039  97.2955  28.1209 0016673 246.0566 113.8944 15.58098283183713
GSLV R/B                
1 54149U 22138AN  26025.86154316  .00004853  00000+0  42413-3 0  9994
2 54149  87.3846 180.6953 0019856 311.4321  48.5204 14.96428869177529
XRISM                   
1 57800U 23137A   26025.57643411  .00008635  00000+0  49945-3 0  9997
2 57800  31.0009 202.3993 0008048 327.0134  33.0001 15.10920839131261
ACS3                    
1 59588U 24077B   26026.27565280  .00033660  00000+0  28003-1 0  9997
2 59588  97.2319 336.9186 0049310 216.9415 142.8348 13.87798555 88317
SZ-21 MODULE            
1 66515U 25246C   26025.60489789  .00040571  00000+0  39793-3 0  9998
2 66515  41.4752 107.9254 0003260 237.6166 122.4359 15.65292049 11313
